[{"OBJECT_NAME":"SYNCOM 2 (A 26)","OBJECT_ID":"1963-031A","EPOCH":"2026-04-04T14:01:37.464096","MEAN_MOTION":1.00253051,"ECCENTRICITY":0.0005916,"INCLINATION":30.1409,"RA_OF_ASC_NODE":301.4865,"ARG_OF_PERICENTER":199.6121,"MEAN_ANOMALY":333.4375,"EPHEMERIS_TYPE":0,"CLASSIFICATION_TYPE":"U","NORAD_CAT_ID":634,"ELEMENT_SET_NO":999,"REV_AT_EPOCH":22962,"BSTAR":0,"MEAN_MOTION_DOT":-5.4e-7,"MEAN_MOTION_DDOT":0},{"OBJECT_NAME":"SYNCOM 3","OBJECT_ID":"1964-047A","EPOCH":"2026-04-03T23:19:11.913024","MEAN_MOTION":1.00385476,"ECCENTRICITY":0.00032827,"INCLINATION":6.787,"RA_OF_ASC_NODE":65.2483,"ARG_OF_PERICENTER":187.0008,"MEAN_ANOMALY":336.8827,"EPHEMERIS_TYPE":0,"CLASSIFICATION_TYPE":"U","NORAD_CAT_ID":858,"ELEMENT_SET_NO":999,"REV_AT_EPOCH":5272,"BSTAR":0,"MEAN_MOTION_DOT":1.13e-6,"MEAN_MOTION_DDOT":0},{"OBJECT_NAME":"INTELSAT 1-F1","OBJECT_ID":"1965-028A","EPOCH":"2026-04-02T15:15:36.683136","MEAN_MOTION":1.00178935,"ECCENTRICITY":0.00051122,"INCLINATION":6.974,"RA_OF_ASC_NODE":64.4909,"ARG_OF_PERICENTER":161.826,"MEAN_ANOMALY":94.4055,"EPHEMERIS_TYPE":0,"CLASSIFICATION_TYPE":"U","NORAD_CAT_ID":1317,"ELEMENT_SET_NO":999,"REV_AT_EPOCH":12641,"BSTAR":0,"MEAN_MOTION_DOT":-1.18e-6,"MEAN_MOTION_DDOT":0},{"OBJECT_NAME":"ATS 1","OBJECT_ID":"1966-110A","EPOCH":"2026-04-03T21:28:51.520800","MEAN_MOTION":1.0032042,"ECCENTRICITY":0.0006578,"INCLINATION":4.7879,"RA_OF_ASC_NODE":70.6182,"ARG_OF_PERICENTER":193.9205,"MEAN_ANOMALY":30.7422,"EPHEMERIS_TYPE":0,"CLASSIFICATION_TYPE":"U","NORAD_CAT_ID":2608,"ELEMENT_SET_NO":999,"REV_AT_EPOCH":13405,"BSTAR":0,"MEAN_MOTION_DOT":-2.66e-6,"MEAN_MOTION_DDOT":0},{"OBJECT_NAME":"INTELSAT 2-F2","OBJECT_ID":"1967-001A","EPOCH":"2026-04-04T04:03:29.644704","MEAN_MOTION":1.00208989,"ECCENTRICITY":0.00071595,"INCLINATION":3.0637,"RA_OF_ASC_NODE":77.9953,"ARG_OF_PERICENTER":213.7204,"MEAN_ANOMALY":285.814,"EPHEMERIS_TYPE":0,"CLASSIFICATION_TYPE":"U","NORAD_CAT_ID":2639,"ELEMENT_SET_NO":999,"REV_AT_EPOCH":11850,"BSTAR":0,"MEAN_MOTION_DOT":-2.49e-6,"MEAN_MOTION_DDOT":0},{"OBJECT_NAME":"INTELSAT 2-F3","OBJECT_ID":"1967-026A","EPOCH":"2026-04-04T02:34:30.680256","MEAN_MOTION":1.0032042,"ECCENTRICITY":0.00187288,"INCLINATION":3.8985,"RA_OF_ASC_NODE":68.4263,"ARG_OF_PERICENTER":227.8025,"MEAN_ANOMALY":307.1496,"EPHEMERIS_TYPE":0,"CLASSIFICATION_TYPE":"U","NORAD_CAT_ID":2717,"ELEMENT_SET_NO":999,"REV_AT_EPOCH":12315,"BSTAR":0,"MEAN_MOTION_DOT":8.8e-7,"MEAN_MOTION_DDOT":0},{"OBJECT_NAME":"INTELSAT 2-F4","OBJECT_ID":"1967-094A","EPOCH":"2026-04-04T14:00:21.710304","MEAN_MOTION":1.00379995,"ECCENTRICITY":0.000996,"INCLINATION":3.8901,"RA_OF_ASC_NODE":74.9541,"ARG_OF_PERICENTER":150.5289,"MEAN_ANOMALY":74.1289,"EPHEMERIS_TYPE":0,"CLASSIFICATION_TYPE":"U","NORAD_CAT_ID":2969,"ELEMENT_SET_NO":999,"REV_AT_EPOCH":11457,"BSTAR":0,"MEAN_MOTION_DOT":-1.15e-6,"MEAN_MOTION_DDOT":0},{"OBJECT_NAME":"ATS 3","OBJECT_ID":"1967-111A","EPOCH":"2026-04-04T13:59:51.758016","MEAN_MOTION":1.00271842,"ECCENTRICITY":0.0014922,"INCLINATION":2.9892,"RA_OF_ASC_NODE":79.2139,"ARG_OF_PERICENTER":30.0354,"MEAN_ANOMALY":188.3329,"EPHEMERIS_TYPE":0,"CLASSIFICATION_TYPE":"U","NORAD_CAT_ID":3029,"ELEMENT_SET_NO":999,"REV_AT_EPOCH":21389,"BSTAR":0,"MEAN_MOTION_DOT":-8.6e-7,"MEAN_MOTION_DDOT":0},{"OBJECT_NAME":"LES-6","OBJECT_ID":"1968-081D","EPOCH":"2026-04-04T12:05:09.667104","MEAN_MOTION":1.00294056,"ECCENTRICITY":0.0010049,"INCLINATION":1.413,"RA_OF_ASC_NODE":36.4243,"ARG_OF_PERICENTER":302.458,"MEAN_ANOMALY":247.9756,"EPHEMERIS_TYPE":0,"CLASSIFICATION_TYPE":"U","NORAD_CAT_ID":3431,"ELEMENT_SET_NO":999,"REV_AT_EPOCH":12004,"BSTAR":0,"MEAN_MOTION_DOT":1.25e-6,"MEAN_MOTION_DDOT":0},{"OBJECT_NAME":"OPS 0757 (TACSAT)","OBJECT_ID":"1969-013A","EPOCH":"2026-04-04T05:44:57.412896","MEAN_MOTION":1.00414564,"ECCENTRICITY":0.00203761,"INCLINATION":2.6619,"RA_OF_ASC_NODE":74.9506,"ARG_OF_PERICENTER":181.0541,"MEAN_ANOMALY":342.708,"EPHEMERIS_TYPE":0,"CLASSIFICATION_TYPE":"U","NORAD_CAT_ID":3691,"ELEMENT_SET_NO":999,"REV_AT_EPOCH":11336,"BSTAR":0,"MEAN_MOTION_DOT":-2.48e-6,"MEAN_MOTION_DDOT":0},{"OBJECT_NAME":"SKYNET 1A","OBJECT_ID":"1969-101A","EPOCH":"2026-04-04T14:00:29.198592","MEAN_MOTION":1.00271167,"ECCENTRICITY":0.0024761,"INCLINATION":0.2522,"RA_OF_ASC_NODE":76.4756,"ARG_OF_PERICENTER":166.6819,"MEAN_ANOMALY":56.7661,"EPHEMERIS_TYPE":0,"CLASSIFICATION_TYPE":"U","NORAD_CAT_ID":4250,"ELEMENT_SET_NO":999,"REV_AT_EPOCH":13377,"BSTAR":0,"MEAN_MOTION_DOT":-1.01e-6,"MEAN_MOTION_DDOT":0},{"OBJECT_NAME":"NATO 2A","OBJECT_ID":"1970-021A","EPOCH":"2026-04-04T15:15:32.693184","MEAN_MOTION":1.0028061,"ECCENTRICITY":0.0002405,"INCLINATION":0.5931,"RA_OF_ASC_NODE":299.2836,"ARG_OF_PERICENTER":320.2929,"MEAN_ANOMALY":55.2195,"EPHEMERIS_TYPE":0,"CLASSIFICATION_TYPE":"U","NORAD_CAT_ID":4353,"ELEMENT_SET_NO":999,"REV_AT_EPOCH":12503,"BSTAR":0,"MEAN_MOTION_DOT":-7.8e-7,"MEAN_MOTION_DDOT":0},{"OBJECT_NAME":"INTELSAT 3-F7","OBJECT_ID":"1970-032A","EPOCH":"2026-04-03T09:27:48.048768","MEAN_MOTION":1.00355184,"ECCENTRICITY":0.00044507,"INCLINATION":2.2351,"RA_OF_ASC_NODE":89.2236,"ARG_OF_PERICENTER":231.3796,"MEAN_ANOMALY":129.1377,"EPHEMERIS_TYPE":0,"CLASSIFICATION_TYPE":"U","NORAD_CAT_ID":4376,"ELEMENT_SET_NO":999,"REV_AT_EPOCH":4661,"BSTAR":0,"MEAN_MOTION_DOT":-3.63e-6,"MEAN_MOTION_DDOT":0},{"OBJECT_NAME":"ATLAS AGENA D R/B","OBJECT_ID":"1970-046B","EPOCH":"2026-04-03T06:47:42.162432","MEAN_MOTION":1.00395503,"ECCENTRICITY":0.00314573,"INCLINATION":1.5054,"RA_OF_ASC_NODE":85.4214,"ARG_OF_PERICENTER":304.6115,"MEAN_ANOMALY":55.9112,"EPHEMERIS_TYPE":0,"CLASSIFICATION_TYPE":"U","NORAD_CAT_ID":4511,"ELEMENT_SET_NO":999,"REV_AT_EPOCH":2480,"BSTAR":0,"MEAN_MOTION_DOT":-1.56e-6,"MEAN_MOTION_DDOT":0},{"OBJECT_NAME":"NATO 2B","OBJECT_ID":"1971-009A","EPOCH":"2026-04-04T05:26:29.185152","MEAN_MOTION":1.0027225,"ECCENTRICITY":0.00015215,"INCLINATION":1.3308,"RA_OF_ASC_NODE":250.0824,"ARG_OF_PERICENTER":223.7111,"MEAN_ANOMALY":55.4491,"EPHEMERIS_TYPE":0,"CLASSIFICATION_TYPE":"U","NORAD_CAT_ID":4902,"ELEMENT_SET_NO":999,"REV_AT_EPOCH":11789,"BSTAR":0,"MEAN_MOTION_DOT":-9.0e-7,"MEAN_MOTION_DDOT":0},{"OBJECT_NAME":"OPS 9431 (DSCS 2-1)","OBJECT_ID":"1971-095A","EPOCH":"2026-04-04T14:01:44.078016","MEAN_MOTION":1.00271971,"ECCENTRICITY":0.0005438,"INCLINATION":1.7752,"RA_OF_ASC_NODE":256.5016,"ARG_OF_PERICENTER":16.2469,"MEAN_ANOMALY":31.9064,"EPHEMERIS_TYPE":0,"CLASSIFICATION_TYPE":"U","NORAD_CAT_ID":5587,"ELEMENT_SET_NO":999,"REV_AT_EPOCH":12128,"BSTAR":0,"MEAN_MOTION_DOT":-1.29e-6,"MEAN_MOTION_DDOT":0},{"OBJECT_NAME":"OPS 9432 (DSCS 2-2)","OBJECT_ID":"1971-095B","EPOCH":"2026-04-03T22:03:49.781088","MEAN_MOTION":1.00239635,"ECCENTRICITY":0.00046253,"INCLINATION":1.7397,"RA_OF_ASC_NODE":257.9243,"ARG_OF_PERICENTER":74.4087,"MEAN_ANOMALY":333.7064,"EPHEMERIS_TYPE":0,"CLASSIFICATION_TYPE":"U","NORAD_CAT_ID":5588,"ELEMENT_SET_NO":999,"REV_AT_EPOCH":4662,"BSTAR":0,"MEAN_MOTION_DOT":-2.66e-6,"MEAN_MOTION_DDOT":0}]
