SYNCOM 2 (A 26)         
1 00634U 63031A   26094.58446139 -.00000054  00000+0  00000+0 0  9995
2 00634  30.1409 301.4865 0005916 199.6121 333.4375  1.00253051229625
SYNCOM 3                
1 00858U 64047A   26093.97166566  .00000113  00000+0  00000+0 0  9991
2 00858   6.7870  65.2483 0003282 187.0008 336.8827  1.00385476 52725
INTELSAT 1-F1           
1 01317U 65028A   26092.63584124 -.00000118  00000+0  00000+0 0  9994
2 01317   6.9740  64.4909 0005112 161.8260  94.4055  1.00178935126410
ATS 1                   
1 02608U 66110A   26093.89504075 -.00000266  00000+0  00000+0 0  9991
2 02608   4.7879  70.6182 0006578 193.9205  30.7422  1.00320420134055
INTELSAT 2-F2           
1 02639U 67001A   26094.16909311 -.00000249  00000+0  00000+0 0  9999
2 02639   3.0637  77.9953 0007159 213.7204 285.8140  1.00208989118502
INTELSAT 2-F3           
1 02717U 67026A   26094.10729954  .00000088  00000+0  00000+0 0  9990
2 02717   3.8985  68.4263 0018728 227.8025 307.1496  1.00320420123157
INTELSAT 2-F4           
1 02969U 67094A   26094.58358461 -.00000115  00000+0  00000+0 0  9999
2 02969   3.8901  74.9541 0009960 150.5289  74.1289  1.00379995114575
ATS 3                   
1 03029U 67111A   26094.58323794 -.00000086  00000+0  00000+0 0  9995
2 03029   2.9892  79.2139 0014922  30.0354 188.3329  1.00271842213892
LES-6                   
1 03431U 68081D   26094.50358411  .00000125  00000+0  00000+0 0  9998
2 03431   1.4130  36.4243 0010049 302.4580 247.9756  1.00294056120044
OPS 0757 (TACSAT)       
1 03691U 69013A   26094.23955339 -.00000248  00000+0  00000+0 0  9991
2 03691   2.6619  74.9506 0020376 181.0541 342.7080  1.00414564113367
SKYNET 1A               
1 04250U 69101A   26094.58367128 -.00000101  00000+0  00000+0 0  9990
2 04250   0.2522  76.4756 0024761 166.6819  56.7661  1.00271167133773
NATO 2A                 
1 04353U 70021A   26094.63579506 -.00000078  00000+0  00000+0 0  9991
2 04353   0.5931 299.2836 0002405 320.2929  55.2195  1.00280610125038
INTELSAT 3-F7           
1 04376U 70032A   26093.39430612 -.00000363  00000+0  00000+0 0  9991
2 04376   2.2351  89.2236 0004450 231.3796 129.1377  1.00355184 46613
ATLAS AGENA D R/B       
1 04511U 70046B   26093.28312688 -.00000156  00000+0  00000+0 0  9997
2 04511   1.5054  85.4214 0031457 304.6115  55.9112  1.00395503 24805
NATO 2B                 
1 04902U 71009A   26094.22672668 -.00000090  00000+0  00000+0 0  9990
2 04902   1.3308 250.0824 0001521 223.7111  55.4491  1.00272250117892
OPS 9431 (DSCS 2-1)     
1 05587U 71095A   26094.58453794 -.00000129  00000+0  00000+0 0  9994
2 05587   1.7752 256.5016 0005438  16.2469  31.9064  1.00271971121287
OPS 9432 (DSCS 2-2)     
1 05588U 71095B   26093.91932617 -.00000266  00000+0  00000+0 0  9999
2 05588   1.7397 257.9243 0004625  74.4087 333.7064  1.00239635 46627
